start=new Date('2023-03-16T00:00:00.000Z').valueOf();
sats=[{"MEAN_MOTION_DOT":"0.00001603","ELEMENT_SET_NO":"999","SEMIMAJOR_AXIS":"6917.842","ARG_OF_PERICENTER":"100.2563","ECCENTRICITY":"0.00016650","TIME_SYSTEM":"UTC","CLASSIFICATION_TYPE":"U","REV_AT_EPOCH":"2669","DECAY_DATE":null,"PERIOD":"95.437","RA_OF_ASC_NODE":"177.6031","FILE":"3861420","NORAD_CAT_ID":"53907","INCLINATION":"53.2186","GP_ID":"228180851","MEAN_MOTION":"15.08852639","OBJECT_ID":"2022-119X","REF_FRAME":"TEME","COUNTRY_CODE":"US","EPOCH":"2023-03-15T12:42:32.382144","TLE_LINE2":"2 53907  53.2186 177.6031 0001665 100.2563 259.8617 15.08852639 26699","APOAPSIS":"540.859","OBJECT_NAME":"STARLINK-5063","LAUNCH_DATE":"2022-09-24","MEAN_MOTION_DDOT":"0.0000000000000","MEAN_ANOMALY":"259.8617","BSTAR":"0.00011874000000","SITE":"AFETR","PERIAPSIS":"538.555","EPHEMERIS_TYPE":"0","MEAN_ELEMENT_THEORY":"SGP4","OBJECT_TYPE":"PAYLOAD","CENTER_NAME":"EARTH","RCS_SIZE":"LARGE","TLE_LINE1":"1 53907U 22119X   23074.52954146  .00001603  00000-0  11874-3 0  9995"},{"GP_ID":"228151836","FILE":"3861350","NORAD_CAT_ID":"53908","INCLINATION":"53.2159","PERIOD":"95.436","RA_OF_ASC_NODE":"168.2450","DECAY_DATE":null,"CLASSIFICATION_TYPE":"U","REV_AT_EPOCH":"2724","ECCENTRICITY":"0.00015390","TIME_SYSTEM":"UTC","SEMIMAJOR_AXIS":"6917.809","ARG_OF_PERICENTER":"68.2932","MEAN_MOTION_DOT":"0.00007625","ELEMENT_SET_NO":"999","TLE_LINE1":"1 53908U 22119Y   23074.51581349  .00007625  00000-0  49636-3 0  9993","OBJECT_TYPE":"PAYLOAD","MEAN_ELEMENT_THEORY":"SGP4","CENTER_NAME":"EARTH","RCS_SIZE":"LARGE","PERIAPSIS":"538.610","SITE":"AFETR","EPHEMERIS_TYPE":"0","MEAN_MOTION_DDOT":"0.0000000000000","MEAN_ANOMALY":"291.8224","BSTAR":"0.00049636000000","TLE_LINE2":"2 53908  53.2159 168.2450 0001539  68.2932 291.8224 15.08863248 27244","APOAPSIS":"540.739","LAUNCH_DATE":"2022-09-24","OBJECT_NAME":"STARLINK-5057","EPOCH":"2023-03-15T12:22:46.285536","OBJECT_ID":"2022-119Y","MEAN_MOTION":"15.08863248","COUNTRY_CODE":"US","REF_FRAME":"TEME"},{"SEMIMAJOR_AXIS":"6917.794","ARG_OF_PERICENTER":"75.9859","MEAN_MOTION_DOT":"0.00008752","ELEMENT_SET_NO":"999","CLASSIFICATION_TYPE":"U","REV_AT_EPOCH":"2724","ECCENTRICITY":"0.00013480","TIME_SYSTEM":"UTC","PERIOD":"95.436","RA_OF_ASC_NODE":"168.3073","DECAY_DATE":null,"GP_ID":"228152086","FILE":"3861350","NORAD_CAT_ID":"53909","INCLINATION":"53.2158","EPOCH":"2023-03-15T12:38:41.597376","MEAN_MOTION":"15.08868275","OBJECT_ID":"2022-119Z","REF_FRAME":"TEME","COUNTRY_CODE":"US","MEAN_MOTION_DDOT":"0.0000000000000","MEAN_ANOMALY":"284.1283","BSTAR":"0.00056683000000","TLE_LINE2":"2 53909  53.2158 168.3073 0001348  75.9859 284.1283 15.08868275 27242","APOAPSIS":"540.591","OBJECT_NAME":"STARLINK-4796","LAUNCH_DATE":"2022-09-24","MEAN_ELEMENT_THEORY":"SGP4","OBJECT_TYPE":"PAYLOAD","CENTER_NAME":"EARTH","RCS_SIZE":"LARGE","PERIAPSIS":"538.726","SITE":"AFETR","EPHEMERIS_TYPE":"0","TLE_LINE1":"1 53909U 22119Z   23074.52687034  .00008752  00000-0  56683-3 0  9995"},{"TLE_LINE2":"2 53910  53.2164 168.1986 0002081 135.1955 224.9205 15.08872080 27248","OBJECT_NAME":"STARLINK-5056","LAUNCH_DATE":"2022-09-24","APOAPSIS":"541.087","MEAN_MOTION_DDOT":"0.0000000000000","BSTAR":"-0.00096362000000","MEAN_ANOMALY":"224.9205","OBJECT_ID":"2022-119AA","MEAN_MOTION":"15.08872080","REF_FRAME":"TEME","COUNTRY_CODE":"US","EPOCH":"2023-03-15T12:12:08.536896","TLE_LINE1":"1 53910U 22119AA  23074.50843214 -.00015605  00000-0 -96362-3 0  9994","EPHEMERIS_TYPE":"0","PERIAPSIS":"538.208","SITE":"AFETR","OBJECT_TYPE":"PAYLOAD","MEAN_ELEMENT_THEORY":"SGP4","CENTER_NAME":"EARTH","RCS_SIZE":"LARGE","TIME_SYSTEM":"UTC","ECCENTRICITY":"0.00020810","CLASSIFICATION_TYPE":"U","REV_AT_EPOCH":"2724","MEAN_MOTION_DOT":"-0.00015605","ELEMENT_SET_NO":"999","SEMIMAJOR_AXIS":"6917.782","ARG_OF_PERICENTER":"135.1955","INCLINATION":"53.2164","FILE":"3861350","NORAD_CAT_ID":"53910","GP_ID":"228152338","DECAY_DATE":null,"PERIOD":"95.436","RA_OF_ASC_NODE":"168.1986"},{"MEAN_MOTION_DDOT":"0.0000000000000","MEAN_ANOMALY":"270.9322","BSTAR":"0.00015907000000","TLE_LINE2":"2 53911  53.2170 167.9643 0001118  89.1798 270.9322 15.08847610 27259","APOAPSIS":"540.496","LAUNCH_DATE":"2022-09-24","OBJECT_NAME":"STARLINK-5048","EPOCH":"2023-03-15T14:03:28.347264","OBJECT_ID":"2022-119AB","MEAN_MOTION":"15.08847610","REF_FRAME":"TEME","COUNTRY_CODE":"US","TLE_LINE1":"1 53911U 22119AB  23074.58574476  .00002245  00000-0  15907-3 0  9994","OBJECT_TYPE":"PAYLOAD","MEAN_ELEMENT_THEORY":"SGP4","CENTER_NAME":"EARTH","RCS_SIZE":"LARGE","PERIAPSIS":"538.949","SITE":"AFETR","EPHEMERIS_TYPE":"0","CLASSIFICATION_TYPE":"U","REV_AT_EPOCH":"2725","ECCENTRICITY":"0.00011180","TIME_SYSTEM":"UTC","ARG_OF_PERICENTER":"89.1798","SEMIMAJOR_AXIS":"6917.857","MEAN_MOTION_DOT":"0.00002245","ELEMENT_SET_NO":"999","GP_ID":"228211234","FILE":"3861599","NORAD_CAT_ID":"53911","INCLINATION":"53.2170","PERIOD":"95.437","RA_OF_ASC_NODE":"167.9643","DECAY_DATE":null},{"TLE_LINE1":"1 53912U 22119AC  23074.53415062  .00015203  00000-0  97016-3 0  9994","EPHEMERIS_TYPE":"0","PERIAPSIS":"538.619","SITE":"AFETR","OBJECT_TYPE":"PAYLOAD","MEAN_ELEMENT_THEORY":"SGP4","RCS_SIZE":"LARGE","CENTER_NAME":"EARTH","TLE_LINE2":"2 53912  53.2151 167.6550 0001444 113.8500 246.2644 15.08881796 27257","LAUNCH_DATE":"2022-09-24","OBJECT_NAME":"STARLINK-5059","APOAPSIS":"540.617","MEAN_MOTION_DDOT":"0.0000000000000","BSTAR":"0.00097016000000","MEAN_ANOMALY":"246.2644","OBJECT_ID":"2022-119AC","MEAN_MOTION":"15.08881796","REF_FRAME":"TEME","COUNTRY_CODE":"US","EPOCH":"2023-03-15T12:49:10.613568","INCLINATION":"53.2151","FILE":"3861350","NORAD_CAT_ID":"53912","GP_ID":"228151337","DECAY_DATE":null,"PERIOD":"95.435","RA_OF_ASC_NODE":"167.6550","TIME_SYSTEM":"UTC","ECCENTRICITY":"0.00014440","CLASSIFICATION_TYPE":"U","REV_AT_EPOCH":"2725","MEAN_MOTION_DOT":"0.00015203","ELEMENT_SET_NO":"999","ARG_OF_PERICENTER":"113.8500","SEMIMAJOR_AXIS":"6917.753"},{"OBJECT_ID":"2022-119AD","MEAN_MOTION":"15.08867709","COUNTRY_CODE":"US","REF_FRAME":"TEME","EPOCH":"2023-03-15T12:01:32.789280","TLE_LINE2":"2 53913  53.2183 168.1500 0001862  30.4505 329.6595 15.08867709 27245","OBJECT_NAME":"STARLINK-5053","LAUNCH_DATE":"2022-09-24","APOAPSIS":"540.949","MEAN_MOTION_DDOT":"0.0000000000000","BSTAR":"0.00032037000000","MEAN_ANOMALY":"329.6595","EPHEMERIS_TYPE":"0","SITE":"AFETR","PERIAPSIS":"538.373","MEAN_ELEMENT_THEORY":"SGP4","OBJECT_TYPE":"PAYLOAD","RCS_SIZE":"LARGE","CENTER_NAME":"EARTH","TLE_LINE1":"1 53913U 22119AD  23074.50107395  .00004818  00000-0  32037-3 0  9991","MEAN_MOTION_DOT":"0.00004818","ELEMENT_SET_NO":"999","SEMIMAJOR_AXIS":"6917.796","ARG_OF_PERICENTER":"30.4505","TIME_SYSTEM":"UTC","ECCENTRICITY":"0.00018620","CLASSIFICATION_TYPE":"U","REV_AT_EPOCH":"2724","DECAY_DATE":null,"PERIOD":"95.436","RA_OF_ASC_NODE":"168.1500","INCLINATION":"53.2183","NORAD_CAT_ID":"53913","FILE":"3861350","GP_ID":"228151587"},{"OBJECT_ID":"2022-119AE","MEAN_MOTION":"15.08860224","COUNTRY_CODE":"US","REF_FRAME":"TEME","EPOCH":"2023-03-15T11:56:14.362080","TLE_LINE2":"2 53914  53.2181 168.1253 0001429 102.3434 257.7718 15.08860224 27241","OBJECT_NAME":"STARLINK-5040","LAUNCH_DATE":"2022-09-24","APOAPSIS":"540.672","MEAN_MOTION_DDOT":"0.0000000000000","BSTAR":"0.00036134000000","MEAN_ANOMALY":"257.7718","EPHEMERIS_TYPE":"0","SITE":"AFETR","PERIAPSIS":"538.695","MEAN_ELEMENT_THEORY":"SGP4","OBJECT_TYPE":"PAYLOAD","CENTER_NAME":"EARTH","RCS_SIZE":"LARGE","TLE_LINE1":"1 53914U 22119AE  23074.49738845  .00005471  00000-0  36134-3 0  9998","MEAN_MOTION_DOT":"0.00005471","ELEMENT_SET_NO":"999","SEMIMAJOR_AXIS":"6917.819","ARG_OF_PERICENTER":"102.3434","TIME_SYSTEM":"UTC","ECCENTRICITY":"0.00014290","CLASSIFICATION_TYPE":"U","REV_AT_EPOCH":"2724","DECAY_DATE":null,"PERIOD":"95.436","RA_OF_ASC_NODE":"168.1253","INCLINATION":"53.2181","FILE":"3861350","NORAD_CAT_ID":"53914","GP_ID":"228152838"},{"ELEMENT_SET_NO":"999","MEAN_MOTION_DOT":"0.00011353","SEMIMAJOR_AXIS":"6917.758","ARG_OF_PERICENTER":"92.4489","ECCENTRICITY":"0.00013350","TIME_SYSTEM":"UTC","REV_AT_EPOCH":"2724","CLASSIFICATION_TYPE":"U","DECAY_DATE":null,"RA_OF_ASC_NODE":"168.2185","PERIOD":"95.435","FILE":"3861350","NORAD_CAT_ID":"53915","INCLINATION":"53.2166","GP_ID":"228152589","COUNTRY_CODE":"US","REF_FRAME":"TEME","OBJECT_ID":"2022-119AF","MEAN_MOTION":"15.08880075","EPOCH":"2023-03-15T12:17:27.537792","APOAPSIS":"540.546","LAUNCH_DATE":"2022-09-24","OBJECT_NAME":"STARLINK-5017","TLE_LINE2":"2 53915  53.2166 168.2185 0001335  92.4489 267.6656 15.08880075 27242","MEAN_ANOMALY":"267.6656","BSTAR":"0.00072946000000","MEAN_MOTION_DDOT":"0.0000000000000","SITE":"AFETR","PERIAPSIS":"538.699","EPHEMERIS_TYPE":"0","CENTER_NAME":"EARTH","RCS_SIZE":"LARGE","OBJECT_TYPE":"PAYLOAD","MEAN_ELEMENT_THEORY":"SGP4","TLE_LINE1":"1 53915U 22119AF  23074.51212428  .00011353  00000-0  72946-3 0  9993"},{"EPHEMERIS_TYPE":"0","PERIAPSIS":"538.420","SITE":"AFETR","MEAN_ELEMENT_THEORY":"SGP4","OBJECT_TYPE":"PAYLOAD","RCS_SIZE":"LARGE","CENTER_NAME":"EARTH","TLE_LINE1":"1 53916U 22119AG  23074.47439525  .00002531  00000-0  17698-3 0  9999","OBJECT_ID":"2022-119AG","MEAN_MOTION":"15.08860711","REF_FRAME":"TEME","COUNTRY_CODE":"US","EPOCH":"2023-03-15T11:23:07.749600","TLE_LINE2":"2 53916  53.2195 148.0626 0001824 108.7535 251.3655 15.08860711 27533","LAUNCH_DATE":"2022-09-24","OBJECT_NAME":"STARLINK-5051","APOAPSIS":"540.944","MEAN_MOTION_DDOT":"0.0000000000000","BSTAR":"0.00017698000000","MEAN_ANOMALY":"251.3655","DECAY_DATE":null,"PERIOD":"95.436","RA_OF_ASC_NODE":"148.0626","INCLINATION":"53.2195","NORAD_CAT_ID":"53916","FILE":"3861350","GP_ID":"228151837","MEAN_MOTION_DOT":"0.00002531","ELEMENT_SET_NO":"999","ARG_OF_PERICENTER":"108.7535","SEMIMAJOR_AXIS":"6917.817","TIME_SYSTEM":"UTC","ECCENTRICITY":"0.00018240","CLASSIFICATION_TYPE":"U","REV_AT_EPOCH":"2753"}];
